{"type": "FeatureCollection", "features": [ {"type": "Feature", "properties": {"norad_id": 57401, "name": "TIANMU-1 09", "group": "weather", "lat": -26.66468899773264, "lon": 47.51830865231847, "alt_km": 486.89273316472736, "timestamp": "2025-12-20T20:38:44.088731+00:00", "meta": {"OBJECT_NAME": "TIANMU-1 09", "OBJECT_ID": "2023-101C", "EPOCH": "2025-12-20T14:28:37.229952", "MEAN_MOTION": 15.28190318, "ECCENTRICITY": 0.00064887, "INCLINATION": 97.2811, "RA_OF_ASC_NODE": 43.5858, "ARG_OF_PERICENTER": 62.3709, "MEAN_ANOMALY": 297.8189, "EPHEMERIS_TYPE": 0, "CLASSIFICATION_TYPE": "U", "NORAD_CAT_ID": 57401, "ELEMENT_SET_NO": 999, "REV_AT_EPOCH": 13435, "BSTAR": 0.00018045899, "MEAN_MOTION_DOT": 4.887e-05, "MEAN_MOTION_DDOT": 0}, "tle": {"line1": "1 57401U 23101C   25354.60320868  .00004887  00000+0  18046-3 0  9994", "line2": "2 57401  97.2811  43.5858 0006488  62.3709 297.8189 15.28190318134351"}}, "geometry": {"type": "Point", "coordinates": [47.51830865231847, -26.66468899773264]}}, {"type": "Feature", "properties": {"norad_id": 57402, "name": "TIANMU-1 10", "group": "weather", "lat": 34.51969981441811, "lon": -130.25382454995912, "alt_km": 478.600075056951, "timestamp": "2025-12-20T20:38:44.088743+00:00", "meta": {"OBJECT_NAME": "TIANMU-1 10", "OBJECT_ID": "2023-101D", "EPOCH": "2025-12-20T15:17:56.865408", "MEAN_MOTION": 15.28182041, "ECCENTRICITY": 0.00082282, "INCLINATION": 97.2892, "RA_OF_ASC_NODE": 44.4775, "ARG_OF_PERICENTER": 60.648, "MEAN_ANOMALY": 299.5581, "EPHEMERIS_TYPE": 0, "CLASSIFICATION_TYPE": "U", "NORAD_CAT_ID": 57402, "ELEMENT_SET_NO": 999, "REV_AT_EPOCH": 13435, "BSTAR": 0.00018293051, "MEAN_MOTION_DOT": 4.955e-05, "MEAN_MOTION_DDOT": 0}, "tle": {"line1": "1 57402U 23101D   25354.63746372  .00004955  00000+0  18293-3 0  9990", "line2": "2 57402  97.2892  44.4775 0008228  60.6480 299.5581 15.28182041134359"}}, "geometry": {"type": "Point", "coordinates": [-130.25382454995912, 34.51969981441811]}}, {"type": "Feature", "properties": {"norad_id": 57490, "name": "FENGYUN 3F", "group": "weather", "lat": 53.26837860706538, "lon": -105.12686906319271, "alt_km": 820.1316033323646, "timestamp": "2025-12-20T20:38:44.088753+00:00", "meta": {"OBJECT_NAME": "FENGYUN 3F", "OBJECT_ID": "2023-111A", "EPOCH": "2025-12-20T14:58:54.171840", "MEAN_MOTION": 14.19895462, "ECCENTRICITY": 7.586e-05, "INCLINATION": 98.7074, "RA_OF_ASC_NODE": 62.7901, "ARG_OF_PERICENTER": 113.8859, "MEAN_ANOMALY": 246.2397, "EPHEMERIS_TYPE": 0, "CLASSIFICATION_TYPE": "U", "NORAD_CAT_ID": 57490, "ELEMENT_SET_NO": 999, "REV_AT_EPOCH": 12352, "BSTAR": 4.2756311e-05, "MEAN_MOTION_DOT": 4.7e-07, "MEAN_MOTION_DDOT": 0}, "tle": {"line1": "1 57490U 23111A   25354.62423810  .00000047  00000+0  42756-4 0  9996", "line2": "2 57490  98.7074  62.7901 0000758 113.8859 246.2397 14.19895462123527"}}, "geometry": {"type": "Point", "coordinates": [-105.12686906319271, 53.26837860706538]}}, {"type": "Feature", "properties": {"norad_id": 58584, "name": "ARKTIKA-M 2", "group": "weather", "lat": 40.86238910970414, "lon": -160.08744898690037, "alt_km": 22797.45968955132, "timestamp": "2025-12-20T20:38:44.088767+00:00", "meta": {"OBJECT_NAME": "ARKTIKA-M 2", "OBJECT_ID": "2023-198A", "EPOCH": "2025-12-20T07:20:06.590112", "MEAN_MOTION": 2.00602824, "ECCENTRICITY": 0.68654675, "INCLINATION": 63.225, "RA_OF_ASC_NODE": 174.0676, "ARG_OF_PERICENTER": 268.0739, "MEAN_ANOMALY": 18.8406, "EPHEMERIS_TYPE": 0, "CLASSIFICATION_TYPE": "U", "NORAD_CAT_ID": 58584, "ELEMENT_SET_NO": 999, "REV_AT_EPOCH": 1473, "BSTAR": 0, "MEAN_MOTION_DOT": 2.01e-06, "MEAN_MOTION_DDOT": 0}, "tle": {"line1": "1 58584U 23198A   25354.30563183  .00000201  00000+0  00000+0 0  9992", "line2": "2 58584  63.2250 174.0676 6865467 268.0739  18.8406  2.00602824 14734"}}, "geometry": {"type": "Point", "coordinates": [-160.08744898690037, 40.86238910970414]}}, {"type": "Feature", "properties": {"norad_id": 58645, "name": "TIANMU-1 11", "group": "weather", "lat": -41.96573348855375, "lon": -172.3340820385624, "alt_km": 495.3328940460615, "timestamp": "2025-12-20T20:38:44.088779+00:00", "meta": {"OBJECT_NAME": "TIANMU-1 11", "OBJECT_ID": "2023-205A", "EPOCH": "2025-12-20T14:56:51.048384", "MEAN_MOTION": 15.24687402, "ECCENTRICITY": 0.00075361, "INCLINATION": 97.3595, "RA_OF_ASC_NODE": 14.1076, "ARG_OF_PERICENTER": 276.9903, "MEAN_ANOMALY": 83.0477, "EPHEMERIS_TYPE": 0, "CLASSIFICATION_TYPE": "U", "NORAD_CAT_ID": 58645, "ELEMENT_SET_NO": 999, "REV_AT_EPOCH": 11029, "BSTAR": 0.00016957907, "MEAN_MOTION_DOT": 4.123e-05, "MEAN_MOTION_DDOT": 0}, "tle": {"line1": "1 58645U 23205A   25354.62281306  .00004123  00000+0  16958-3 0  9998", "line2": "2 58645  97.3595  14.1076 0007536 276.9903  83.0477 15.24687402110295"}}, "geometry": {"type": "Point", "coordinates": [-172.3340820385624, -41.96573348855375]}}, {"type": "Feature", "properties": {"norad_id": 58646, "name": "TIANMU-1 12", "group": "weather", "lat": 69.82173290722781, "lon": -6.443811781855076, "alt_km": 489.31047588743877, "timestamp": "2025-12-20T20:38:44.088789+00:00", "meta": {"OBJECT_NAME": "TIANMU-1 12", "OBJECT_ID": "2023-205B", "EPOCH": "2025-12-20T14:02:00.375648", "MEAN_MOTION": 15.24572258, "ECCENTRICITY": 0.0005819, "INCLINATION": 97.3582, "RA_OF_ASC_NODE": 13.8731, "ARG_OF_PERICENTER": 255.6721, "MEAN_ANOMALY": 104.3871, "EPHEMERIS_TYPE": 0, "CLASSIFICATION_TYPE": "U", "NORAD_CAT_ID": 58646, "ELEMENT_SET_NO": 999, "REV_AT_EPOCH": 11027, "BSTAR": 0.0001756407, "MEAN_MOTION_DOT": 4.257e-05, "MEAN_MOTION_DDOT": 0}, "tle": {"line1": "1 58646U 23205B   25354.58472657  .00004257  00000+0  17564-3 0  9997", "line2": "2 58646  97.3582  13.8731 0005819 255.6721 104.3871 15.24572258110275"}}, "geometry": {"type": "Point", "coordinates": [-6.443811781855076, 69.82173290722781]}}, {"type": "Feature", "properties": {"norad_id": 58647, "name": "TIANMU-1 13", "group": "weather", "lat": -67.34569194998322, "lon": 176.30441533283957, "alt_km": 495.09032233272774, "timestamp": "2025-12-20T20:38:44.088799+00:00", "meta": {"OBJECT_NAME": "TIANMU-1 13", "OBJECT_ID": "2023-205C", "EPOCH": "2025-12-20T13:15:29.127744", "MEAN_MOTION": 15.24615333, "ECCENTRICITY": 0.00062844, "INCLINATION": 97.3611, "RA_OF_ASC_NODE": 14.0456, "ARG_OF_PERICENTER": 232.1844, "MEAN_ANOMALY": 127.8826, "EPHEMERIS_TYPE": 0, "CLASSIFICATION_TYPE": "U", "NORAD_CAT_ID": 58647, "ELEMENT_SET_NO": 999, "REV_AT_EPOCH": 11026, "BSTAR": 0.00018384084, "MEAN_MOTION_DOT": 4.466e-05, "MEAN_MOTION_DDOT": 0}, "tle": {"line1": "1 58647U 23205C   25354.55242046  .00004466  00000+0  18384-3 0  9995", "line2": "2 58647  97.3611  14.0456 0006284 232.1844 127.8826 15.24615333110260"}}, "geometry": {"type": "Point", "coordinates": [176.30441533283957, -67.34569194998322]}}, {"type": "Feature", "properties": {"norad_id": 58648, "name": "TIANMU-1 14", "group": "weather", "lat": -20.859333351033055, "lon": 16.51027335331529, "alt_km": 498.32200586421095, "timestamp": "2025-12-20T20:38:44.088809+00:00", "meta": {"OBJECT_NAME": "TIANMU-1 14", "OBJECT_ID": "2023-205D", "EPOCH": "2025-12-20T14:26:12.936768", "MEAN_MOTION": 15.24598812, "ECCENTRICITY": 0.00070269, "INCLINATION": 97.3542, "RA_OF_ASC_NODE": 13.4354, "ARG_OF_PERICENTER": 238.2178, "MEAN_ANOMALY": 121.8376, "EPHEMERIS_TYPE": 0, "CLASSIFICATION_TYPE": "U", "NORAD_CAT_ID": 58648, "ELEMENT_SET_NO": 999, "REV_AT_EPOCH": 11027, "BSTAR": 0.0001793833, "MEAN_MOTION_DOT": 4.354e-05, "MEAN_MOTION_DDOT": 0}, "tle": {"line1": "1 58648U 23205D   25354.60153862  .00004354  00000+0  17938-3 0  9999", "line2": "2 58648  97.3542  13.4354 0007026 238.2178 121.8376 15.24598812110273"}}, "geometry": {"type": "Point", "coordinates": [16.51027335331529, -20.859333351033055]}}, {"type": "Feature", "properties": {"norad_id": 58660, "name": "TIANMU-1 19", "group": "weather", "lat": -27.6318691112022, "lon": 109.80451647974046, "alt_km": 489.0009503626088, "timestamp": "2025-12-20T20:38:44.088820+00:00", "meta": {"OBJECT_NAME": "TIANMU-1 19", "OBJECT_ID": "2023-208A", "EPOCH": "2025-12-20T12:54:32.025888", "MEAN_MOTION": 15.27981628, "ECCENTRICITY": 0.00044763, "INCLINATION": 97.4396, "RA_OF_ASC_NODE": 105.5603, "ARG_OF_PERICENTER": 218.5905, "MEAN_ANOMALY": 141.5015, "EPHEMERIS_TYPE": 0, "CLASSIFICATION_TYPE": "U", "NORAD_CAT_ID": 58660, "ELEMENT_SET_NO": 999, "REV_AT_EPOCH": 11001, "BSTAR": 0.00024723921, "MEAN_MOTION_DOT": 6.676e-05, "MEAN_MOTION_DDOT": 0}, "tle": {"line1": "1 58660U 23208A   25354.53787067  .00006676  00000+0  24724-3 0  9998", "line2": "2 58660  97.4396 105.5603 0004476 218.5905 141.5015 15.27981628110015"}}, "geometry": {"type": "Point", "coordinates": [109.80451647974046, -27.6318691112022]}}, {"type": "Feature", "properties": {"norad_id": 58661, "name": "TIANMU-1 20", "group": "weather", "lat": 78.4253313048846, "lon": 66.73486499625521, "alt_km": 474.90421561409676, "timestamp": "2025-12-20T20:38:44.088830+00:00", "meta": {"OBJECT_NAME": "TIANMU-1 20", "OBJECT_ID": "2023-208B", "EPOCH": "2025-12-20T14:00:35.481600", "MEAN_MOTION": 15.2917203, "ECCENTRICITY": 0.00065683, "INCLINATION": 97.4332, "RA_OF_ASC_NODE": 106.0614, "ARG_OF_PERICENTER": 232.9584, "MEAN_ANOMALY": 127.1055, "EPHEMERIS_TYPE": 0, "CLASSIFICATION_TYPE": "U", "NORAD_CAT_ID": 58661, "ELEMENT_SET_NO": 999, "REV_AT_EPOCH": 11009, "BSTAR": 0.00022569873, "MEAN_MOTION_DOT": 6.317e-05, "MEAN_MOTION_DDOT": 0}, "tle": {"line1": "1 58661U 23208B   25354.58374400  .00006317  00000+0  22570-3 0  9996", "line2": "2 58661  97.4332 106.0614 0006568 232.9584 127.1055 15.29172030110094"}}, "geometry": {"type": "Point", "coordinates": [66.73486499625521, 78.4253313048846]}}]}